{
  "type": "FeatureCollection",
  "name": "mvp1_kent_ridge_building_footprints",
  "properties": {
    "schema": "mvp1-building-footprints-v1",
    "source_ids": [
      "osm-api-nus-kent-ridge-map",
      "osm-overpass-com3"
    ],
    "date_checked": "2026-09-18",
    "coordinate_reference_system": "WGS84 / EPSG:4326",
    "coordinate_order": "[longitude, latitude]",
    "note": "Curated OSM building footprints for the MVP 1 selected Kent Ridge area. Not official NUS floor plans or indoor maps."
  },
  "features": [
    {
      "type": "Feature",
      "id": "com3",
      "properties": {
        "entity_type": "building",
        "name": "COM3",
        "subtitle": "Computing 3, 11 Research Link",
        "source_id": "osm-overpass-com3",
        "source_status": "verified",
        "source_label": "OSM relation 15780831",
        "osm_type": "relation",
        "osm_id": "15780831",
        "building_levels": 6,
        "height_m": 24,
        "height_source_status": "prototype-placeholder",
        "detail": "Sourced building footprint. Height and facade bands remain prototype visual estimates.",
        "date_checked": "2026-09-18"
      },
      "geometry": {
        "type": "Polygon",
        "coordinates": [
          [
            [
              103.7748792,
              1.295188
            ],
            [
              103.7749054,
              1.2951982
            ],
            [
              103.7750734,
              1.2948203
            ],
            [
              103.7750759,
              1.2948137
            ],
            [
              103.7748594,
              1.2947306
            ],
            [
              103.7747911,
              1.2947009
            ],
            [
              103.7747169,
              1.2946511
            ],
            [
              103.7746548,
              1.2945834
            ],
            [
              103.7746023,
              1.2944976
            ],
            [
              103.7745689,
              1.2943694
            ],
            [
              103.7745568,
              1.2942628
            ],
            [
              103.7745654,
              1.2941683
            ],
            [
              103.7745117,
              1.2941435
            ],
            [
              103.7745487,
              1.2940634
            ],
            [
              103.7745255,
              1.2940527
            ],
            [
              103.7743649,
              1.2939771
            ],
            [
              103.7743415,
              1.2939669
            ],
            [
              103.7741622,
              1.2943598
            ],
            [
              103.7741935,
              1.2944536
            ],
            [
              103.7742267,
              1.2944598
            ],
            [
              103.7742879,
              1.2945169
            ],
            [
              103.7743224,
              1.2945793
            ],
            [
              103.7743281,
              1.2946462
            ],
            [
              103.7743211,
              1.2946835
            ],
            [
              103.7742971,
              1.2947214
            ],
            [
              103.7740877,
              1.2949992
            ],
            [
              103.7742218,
              1.2951105
            ],
            [
              103.7743245,
              1.2950748
            ],
            [
              103.7744386,
              1.2950633
            ],
            [
              103.7745501,
              1.2950699
            ],
            [
              103.7746538,
              1.2951
            ],
            [
              103.7748792,
              1.295188
            ]
          ]
        ]
      }
    },
    {
      "type": "Feature",
      "id": "com2",
      "properties": {
        "entity_type": "building",
        "name": "COM2",
        "subtitle": "Computing 2",
        "source_id": "osm-api-nus-kent-ridge-map",
        "source_status": "verified",
        "source_label": "OSM way 54619699",
        "osm_type": "way",
        "osm_id": "54619699",
        "building_levels": "3",
        "height_m": 12,
        "height_source_status": "estimated-from-levels",
        "detail": "OSM-sourced building point derived from way geometry. Not an official NUS floor plan.",
        "date_checked": "2026-09-18"
      },
      "geometry": {
        "type": "Polygon",
        "coordinates": [
          [
            [
              103.7740252,
              1.2944578
            ],
            [
              103.7739787,
              1.2945157
            ],
            [
              103.7739268,
              1.2945784
            ],
            [
              103.7739463,
              1.2945961
            ],
            [
              103.7740295,
              1.2946716
            ],
            [
              103.7740597,
              1.2946356
            ],
            [
              103.7741321,
              1.2945491
            ],
            [
              103.7741983,
              1.29447
            ],
            [
              103.7741935,
              1.2944536
            ],
            [
              103.7741622,
              1.2943598
            ],
            [
              103.7741403,
              1.2942915
            ],
            [
              103.7740681,
              1.2940662
            ],
            [
              103.7741869,
              1.2938045
            ],
            [
              103.7742529,
              1.2936586
            ],
            [
              103.7743681,
              1.2933944
            ],
            [
              103.7743865,
              1.2933533
            ],
            [
              103.774391,
              1.2933431
            ],
            [
              103.7743753,
              1.293336
            ],
            [
              103.7742375,
              1.2932737
            ],
            [
              103.7742258,
              1.2932989
            ],
            [
              103.7741047,
              1.293559
            ],
            [
              103.7740311,
              1.2937173
            ],
            [
              103.7739597,
              1.2938706
            ],
            [
              103.7738863,
              1.2940284
            ],
            [
              103.7738681,
              1.2940674
            ],
            [
              103.7739147,
              1.2941803
            ],
            [
              103.773999,
              1.2943848
            ],
            [
              103.7740195,
              1.2944419
            ],
            [
              103.7740252,
              1.2944578
            ]
          ]
        ]
      }
    },
    {
      "type": "Feature",
      "id": "com1",
      "properties": {
        "entity_type": "building",
        "name": "COM1",
        "subtitle": "Computing 1",
        "source_id": "osm-api-nus-kent-ridge-map",
        "source_status": "verified",
        "source_label": "OSM way 54619721",
        "osm_type": "way",
        "osm_id": "54619721",
        "building_levels": "4",
        "height_m": 16,
        "height_source_status": "estimated-from-levels",
        "detail": "OSM-sourced building point derived from way geometry. Not an official NUS floor plan.",
        "date_checked": "2026-09-18"
      },
      "geometry": {
        "type": "Polygon",
        "coordinates": [
          [
            [
              103.7735602,
              1.2953637
            ],
            [
              103.7735996,
              1.2954036
            ],
            [
              103.7736316,
              1.2954349
            ],
            [
              103.7736437,
              1.2954457
            ],
            [
              103.7736759,
              1.2954834
            ],
            [
              103.7737557,
              1.2953929
            ],
            [
              103.773834,
              1.2952927
            ],
            [
              103.7740375,
              1.2950324
            ],
            [
              103.7740836,
              1.2949734
            ],
            [
              103.7741114,
              1.2949331
            ],
            [
              103.7741799,
              1.294849
            ],
            [
              103.7742434,
              1.2947702
            ],
            [
              103.7743069,
              1.2946876
            ],
            [
              103.7741945,
              1.2945985
            ],
            [
              103.7741321,
              1.2945491
            ],
            [
              103.7740597,
              1.2946356
            ],
            [
              103.7740295,
              1.2946716
            ],
            [
              103.7739463,
              1.2945961
            ],
            [
              103.7739268,
              1.2945784
            ],
            [
              103.7739002,
              1.2945541
            ],
            [
              103.7738199,
              1.2946529
            ],
            [
              103.7737461,
              1.2947438
            ],
            [
              103.7736946,
              1.2948072
            ],
            [
              103.7735905,
              1.2949391
            ],
            [
              103.7735293,
              1.2950034
            ],
            [
              103.7735116,
              1.2950303
            ],
            [
              103.7736565,
              1.2951526
            ],
            [
              103.7736765,
              1.2951719
            ],
            [
              103.7736945,
              1.2951861
            ],
            [
              103.7736707,
              1.2952142
            ],
            [
              103.7736615,
              1.295225
            ],
            [
              103.7735956,
              1.2953029
            ],
            [
              103.7735522,
              1.2953542
            ],
            [
              103.7735602,
              1.2953637
            ]
          ]
        ]
      }
    },
    {
      "type": "Feature",
      "id": "com4",
      "properties": {
        "entity_type": "building",
        "name": "COM4",
        "subtitle": "Computing 4",
        "source_id": "osm-api-nus-kent-ridge-map",
        "source_status": "verified",
        "source_label": "OSM way 1084196072",
        "osm_type": "way",
        "osm_id": "1084196072",
        "building_levels": "6",
        "height_m": 24,
        "height_source_status": "estimated-from-levels",
        "detail": "OSM-sourced building point derived from way geometry. Not an official NUS floor plan.",
        "date_checked": "2026-09-18"
      },
      "geometry": {
        "type": "Polygon",
        "coordinates": [
          [
            [
              103.7752567,
              1.294873
            ],
            [
              103.7756091,
              1.2950488
            ],
            [
              103.7756258,
              1.2950571
            ],
            [
              103.7755685,
              1.2953831
            ],
            [
              103.7752755,
              1.2952338
            ],
            [
              103.7751278,
              1.2951846
            ],
            [
              103.7752498,
              1.2948872
            ],
            [
              103.7752567,
              1.294873
            ]
          ]
        ]
      }
    },
    {
      "type": "Feature",
      "id": "central-library-building",
      "properties": {
        "entity_type": "building",
        "name": "Central Library",
        "subtitle": "Library building",
        "source_id": "osm-api-nus-kent-ridge-map",
        "source_status": "verified",
        "source_label": "OSM way 54583490",
        "osm_type": "way",
        "osm_id": "54583490",
        "building_levels": "6",
        "height_m": 24,
        "height_source_status": "estimated-from-levels",
        "detail": "OSM-sourced building point derived from way geometry. Not an official NUS indoor map.",
        "date_checked": "2026-09-18"
      },
      "geometry": {
        "type": "Polygon",
        "coordinates": [
          [
            [
              103.7729361,
              1.2969887
            ],
            [
              103.7730175,
              1.2969607
            ],
            [
              103.7730673,
              1.2971053
            ],
            [
              103.7731426,
              1.2970794
            ],
            [
              103.7731886,
              1.297213
            ],
            [
              103.7732287,
              1.2971992
            ],
            [
              103.7732697,
              1.2971851
            ],
            [
              103.7732938,
              1.2971769
            ],
            [
              103.7733051,
              1.2972097
            ],
            [
              103.7733551,
              1.2971925
            ],
            [
              103.7733135,
              1.2970715
            ],
            [
              103.7732466,
              1.2970945
            ],
            [
              103.7731924,
              1.2969426
            ],
            [
              103.7731467,
              1.2968041
            ],
            [
              103.7734455,
              1.2967014
            ],
            [
              103.7734174,
              1.2966197
            ],
            [
              103.7734748,
              1.2965999
            ],
            [
              103.7734327,
              1.2964776
            ],
            [
              103.7733834,
              1.2964946
            ],
            [
              103.7733517,
              1.2965055
            ],
            [
              103.7733597,
              1.2965288
            ],
            [
              103.7732936,
              1.2965516
            ],
            [
              103.7732892,
              1.296539
            ],
            [
              103.7732809,
              1.2965147
            ],
            [
              103.7732657,
              1.2965199
            ],
            [
              103.7732554,
              1.2964901
            ],
            [
              103.7732883,
              1.2964788
            ],
            [
              103.7731337,
              1.2960293
            ],
            [
              103.7730985,
              1.296041
            ],
            [
              103.7729843,
              1.2960807
            ],
            [
              103.7726774,
              1.2961862
            ],
            [
              103.7727331,
              1.2963482
            ],
            [
              103.7727771,
              1.296476
            ],
            [
              103.7727838,
              1.2964955
            ],
            [
              103.7728258,
              1.2966177
            ],
            [
              103.7728318,
              1.296635
            ],
            [
              103.7728377,
              1.2966522
            ],
            [
              103.7729056,
              1.2966289
            ],
            [
              103.7729262,
              1.2966888
            ],
            [
              103.7729524,
              1.2966798
            ],
            [
              103.7729381,
              1.2966384
            ],
            [
              103.7729496,
              1.2966345
            ],
            [
              103.7729531,
              1.2966448
            ],
            [
              103.7729732,
              1.2966379
            ],
            [
              103.7729794,
              1.2966558
            ],
            [
              103.7729828,
              1.2966658
            ],
            [
              103.772993,
              1.2966623
            ],
            [
              103.773044,
              1.2968108
            ],
            [
              103.7730106,
              1.2968223
            ],
            [
              103.7729826,
              1.296741
            ],
            [
              103.7729323,
              1.2967584
            ],
            [
              103.7728648,
              1.2967816
            ],
            [
              103.7729361,
              1.2969887
            ]
          ]
        ]
      }
    },
    {
      "type": "Feature",
      "id": "biz1-mochtar-riady",
      "properties": {
        "entity_type": "building",
        "name": "BIZ1 - Mochtar Riady Building",
        "subtitle": "Business school building",
        "source_id": "osm-api-nus-kent-ridge-map",
        "source_status": "verified",
        "source_label": "OSM way 140087160",
        "osm_type": "way",
        "osm_id": "140087160",
        "building_levels": "8",
        "height_m": 32,
        "height_source_status": "estimated-from-levels",
        "detail": "OSM-sourced building point derived from way geometry. Not an official NUS floor plan.",
        "date_checked": "2026-09-18"
      },
      "geometry": {
        "type": "Polygon",
        "coordinates": [
          [
            [
              103.7737612,
              1.2926424
            ],
            [
              103.7739462,
              1.2927336
            ],
            [
              103.7740101,
              1.2927005
            ],
            [
              103.77407,
              1.2926695
            ],
            [
              103.774195,
              1.2926461
            ],
            [
              103.7742755,
              1.2925996
            ],
            [
              103.7742918,
              1.2925961
            ],
            [
              103.7743265,
              1.2925885
            ],
            [
              103.7744279,
              1.2925664
            ],
            [
              103.774439,
              1.2925399
            ],
            [
              103.7745306,
              1.2923276
            ],
            [
              103.7744065,
              1.2922697
            ],
            [
              103.7742859,
              1.2922811
            ],
            [
              103.7741782,
              1.2923244
            ],
            [
              103.7741498,
              1.2923309
            ],
            [
              103.7741346,
              1.2923291
            ],
            [
              103.7740613,
              1.2923308
            ],
            [
              103.7740471,
              1.2923311
            ],
            [
              103.7739953,
              1.2923521
            ],
            [
              103.7739318,
              1.2923906
            ],
            [
              103.7738122,
              1.2925033
            ],
            [
              103.7737612,
              1.2926424
            ]
          ]
        ]
      }
    },
    {
      "type": "Feature",
      "id": "biz2-building",
      "properties": {
        "entity_type": "building",
        "name": "BIZ2",
        "subtitle": "Business school building",
        "source_id": "osm-api-nus-kent-ridge-map",
        "source_status": "verified",
        "source_label": "OSM way 54619697",
        "osm_type": "way",
        "osm_id": "54619697",
        "building_levels": "6",
        "height_m": 24,
        "height_source_status": "estimated-from-levels",
        "detail": "OSM-sourced building point derived from way geometry. Not an official NUS floor plan.",
        "date_checked": "2026-09-18"
      },
      "geometry": {
        "type": "Polygon",
        "coordinates": [
          [
            [
              103.7746736,
              1.2940206
            ],
            [
              103.7749016,
              1.2935286
            ],
            [
              103.7750867,
              1.2934604
            ],
            [
              103.7751919,
              1.2934217
            ],
            [
              103.7753603,
              1.2933596
            ],
            [
              103.7754147,
              1.2933396
            ],
            [
              103.7754704,
              1.2933191
            ],
            [
              103.7756282,
              1.2932609
            ],
            [
              103.7755647,
              1.2930885
            ],
            [
              103.775143,
              1.2932438
            ],
            [
              103.7750081,
              1.2932935
            ],
            [
              103.7747639,
              1.2933835
            ],
            [
              103.7747611,
              1.2933895
            ],
            [
              103.7747514,
              1.2934106
            ],
            [
              103.7747071,
              1.293506
            ],
            [
              103.7746891,
              1.2935449
            ],
            [
              103.7745744,
              1.2937922
            ],
            [
              103.7745047,
              1.2939424
            ],
            [
              103.7745637,
              1.2939698
            ],
            [
              103.7745869,
              1.2939805
            ],
            [
              103.7746736,
              1.2940206
            ]
          ]
        ]
      }
    },
    {
      "type": "Feature",
      "id": "university-hall",
      "properties": {
        "entity_type": "building",
        "name": "University Hall",
        "subtitle": "University Hall",
        "source_id": "osm-api-nus-kent-ridge-map",
        "source_status": "verified",
        "source_label": "OSM way 140087584",
        "osm_type": "way",
        "osm_id": "140087584",
        "building_levels": "5",
        "height_m": 20,
        "height_source_status": "estimated-from-levels",
        "detail": "OSM-sourced building point derived from way geometry. Not an official NUS floor plan.",
        "date_checked": "2026-09-18"
      },
      "geometry": {
        "type": "Polygon",
        "coordinates": [
          [
            [
              103.7774303,
              1.2975159
            ],
            [
              103.7777241,
              1.2974163
            ],
            [
              103.7777132,
              1.2973783
            ],
            [
              103.777571,
              1.296884
            ],
            [
              103.7775498,
              1.2968103
            ],
            [
              103.7772463,
              1.2969976
            ],
            [
              103.7771501,
              1.297057
            ],
            [
              103.7771654,
              1.2970817
            ],
            [
              103.7771769,
              1.2971002
            ],
            [
              103.7771876,
              1.2971175
            ],
            [
              103.7771951,
              1.2971296
            ],
            [
              103.7772727,
              1.2972548
            ],
            [
              103.777377,
              1.2974231
            ],
            [
              103.7773915,
              1.2974465
            ],
            [
              103.7774303,
              1.2975159
            ]
          ]
        ]
      }
    },
    {
      "type": "Feature",
      "id": "ventus-building",
      "properties": {
        "entity_type": "building",
        "name": "Ventus",
        "subtitle": "Kent Ridge Drive building",
        "source_id": "osm-api-nus-kent-ridge-map",
        "source_status": "verified",
        "source_label": "OSM way 503403831",
        "osm_type": "way",
        "osm_id": "503403831",
        "building_levels": "3",
        "height_m": 12,
        "height_source_status": "estimated-from-levels",
        "detail": "OSM-sourced building point derived from way geometry. Not an official NUS floor plan.",
        "date_checked": "2026-09-18"
      },
      "geometry": {
        "type": "Polygon",
        "coordinates": [
          [
            [
              103.7705281,
              1.295574
            ],
            [
              103.7705435,
              1.2954569
            ],
            [
              103.7703649,
              1.2954336
            ],
            [
              103.7703671,
              1.2953766
            ],
            [
              103.7704978,
              1.295375
            ],
            [
              103.7705005,
              1.2953071
            ],
            [
              103.7704371,
              1.2953079
            ],
            [
              103.7704381,
              1.2952592
            ],
            [
              103.77031,
              1.2952564
            ],
            [
              103.7703474,
              1.2951651
            ],
            [
              103.7703444,
              1.2951617
            ],
            [
              103.7702949,
              1.2951695
            ],
            [
              103.7702588,
              1.2951704
            ],
            [
              103.7702333,
              1.2951534
            ],
            [
              103.7701913,
              1.2950996
            ],
            [
              103.7701312,
              1.2950044
            ],
            [
              103.7701204,
              1.2950087
            ],
            [
              103.7701397,
              1.295067
            ],
            [
              103.7698888,
              1.2950515
            ],
            [
              103.7698932,
              1.2951602
            ],
            [
              103.770094,
              1.2951798
            ],
            [
              103.7700789,
              1.2952529
            ],
            [
              103.7699271,
              1.2952426
            ],
            [
              103.7699313,
              1.2953628
            ],
            [
              103.7700803,
              1.2953632
            ],
            [
              103.7700759,
              1.2954037
            ],
            [
              103.7699936,
              1.2953901
            ],
            [
              103.7699865,
              1.2955095
            ],
            [
              103.7705281,
              1.295574
            ]
          ]
        ]
      }
    },
    {
      "type": "Feature",
      "id": "create-tower",
      "properties": {
        "entity_type": "building",
        "name": "Create Tower",
        "subtitle": "University Town building",
        "source_id": "osm-api-nus-kent-ridge-map",
        "source_status": "verified",
        "source_label": "OSM way 125842215",
        "osm_type": "way",
        "osm_id": "125842215",
        "building_levels": "16",
        "height_m": 64,
        "height_source_status": "estimated-from-levels",
        "detail": "OSM-sourced building point derived from way geometry. Not an official NUS floor plan.",
        "date_checked": "2026-09-18"
      },
      "geometry": {
        "type": "Polygon",
        "coordinates": [
          [
            [
              103.7733691,
              1.3042111
            ],
            [
              103.7733209,
              1.3041432
            ],
            [
              103.7731503,
              1.3039027
            ],
            [
              103.7732177,
              1.3037484
            ],
            [
              103.7733764,
              1.3038179
            ],
            [
              103.7733895,
              1.3037816
            ],
            [
              103.7733544,
              1.3037646
            ],
            [
              103.7733963,
              1.3036482
            ],
            [
              103.7735014,
              1.3036891
            ],
            [
              103.7735537,
              1.3035684
            ],
            [
              103.7736665,
              1.3036131
            ],
            [
              103.7737155,
              1.3035003
            ],
            [
              103.7737514,
              1.3035121
            ],
            [
              103.7737596,
              1.3034913
            ],
            [
              103.7740061,
              1.3034935
            ],
            [
              103.7739991,
              1.3036037
            ],
            [
              103.7739686,
              1.3037209
            ],
            [
              103.7739141,
              1.3038209
            ],
            [
              103.7738543,
              1.3038981
            ],
            [
              103.7738054,
              1.3039431
            ],
            [
              103.7737711,
              1.303972
            ],
            [
              103.7737151,
              1.3040192
            ],
            [
              103.7736527,
              1.3040599
            ],
            [
              103.7735987,
              1.3040917
            ],
            [
              103.7735882,
              1.3040979
            ],
            [
              103.7735199,
              1.3041357
            ],
            [
              103.7735142,
              1.3041385
            ],
            [
              103.7734543,
              1.3041682
            ],
            [
              103.7733691,
              1.3042111
            ]
          ]
        ]
      }
    },
    {
      "type": "Feature",
      "id": "education-resource-centre",
      "properties": {
        "entity_type": "building",
        "name": "Education Resource Centre",
        "subtitle": "University Town building",
        "source_id": "osm-api-nus-kent-ridge-map",
        "source_status": "verified",
        "source_label": "OSM way 124549217",
        "osm_type": "way",
        "osm_id": "124549217",
        "building_levels": "4",
        "height_m": 16,
        "height_source_status": "estimated-from-levels",
        "detail": "OSM-sourced building point derived from way geometry. Not an official NUS floor plan.",
        "date_checked": "2026-09-18"
      },
      "geometry": {
        "type": "Polygon",
        "coordinates": [
          [
            [
              103.7730441,
              1.3062242
            ],
            [
              103.7730164,
              1.3061352
            ],
            [
              103.773041,
              1.306108
            ],
            [
              103.7730984,
              1.3061057
            ],
            [
              103.7731332,
              1.3060699
            ],
            [
              103.773262,
              1.3057701
            ],
            [
              103.7732451,
              1.3057402
            ],
            [
              103.7730726,
              1.3056906
            ],
            [
              103.7730471,
              1.3056689
            ],
            [
              103.7730655,
              1.3056595
            ],
            [
              103.7730922,
              1.3056557
            ],
            [
              103.7730406,
              1.3056419
            ],
            [
              103.7730482,
              1.3054769
            ],
            [
              103.7730506,
              1.3054256
            ],
            [
              103.7729922,
              1.3054672
            ],
            [
              103.7729367,
              1.305482
            ],
            [
              103.7727276,
              1.3055217
            ],
            [
              103.7726806,
              1.3055635
            ],
            [
              103.7726727,
              1.3056221
            ],
            [
              103.7726906,
              1.3056875
            ],
            [
              103.7726855,
              1.3057385
            ],
            [
              103.7726687,
              1.3057623
            ],
            [
              103.7726611,
              1.3057708
            ],
            [
              103.7725812,
              1.3058095
            ],
            [
              103.772565,
              1.3058302
            ],
            [
              103.7725862,
              1.3060936
            ],
            [
              103.7726158,
              1.3061323
            ],
            [
              103.7726733,
              1.3062005
            ],
            [
              103.772672,
              1.3062692
            ],
            [
              103.7726643,
              1.3063152
            ],
            [
              103.7728535,
              1.3065317
            ],
            [
              103.7728957,
              1.3065352
            ],
            [
              103.7729313,
              1.3065034
            ],
            [
              103.7729426,
              1.3064667
            ],
            [
              103.7729567,
              1.3064347
            ],
            [
              103.7730839,
              1.3063636
            ],
            [
              103.7730951,
              1.3063334
            ],
            [
              103.7730441,
              1.3062242
            ]
          ]
        ]
      }
    },
    {
      "type": "Feature",
      "id": "university-cultural-centre",
      "properties": {
        "entity_type": "building",
        "name": "University Cultural Centre",
        "subtitle": "Cultural centre building",
        "source_id": "osm-api-nus-kent-ridge-map",
        "source_status": "verified",
        "source_label": "OSM way 54583930",
        "osm_type": "way",
        "osm_id": "54583930",
        "building_levels": "3",
        "height_m": 12,
        "height_source_status": "estimated-from-levels",
        "detail": "OSM-sourced building point derived from way geometry. Not an official NUS floor plan.",
        "date_checked": "2026-09-18"
      },
      "geometry": {
        "type": "Polygon",
        "coordinates": [
          [
            [
              103.7714267,
              1.3022452
            ],
            [
              103.771542,
              1.3022908
            ],
            [
              103.7716164,
              1.302085
            ],
            [
              103.7716989,
              1.3021259
            ],
            [
              103.7718344,
              1.3017813
            ],
            [
              103.7719815,
              1.3017411
            ],
            [
              103.7721194,
              1.3021507
            ],
            [
              103.7723011,
              1.3020796
            ],
            [
              103.7723158,
              1.3021078
            ],
            [
              103.7726732,
              1.3019676
            ],
            [
              103.772572,
              1.3016606
            ],
            [
              103.7727115,
              1.3016083
            ],
            [
              103.772698,
              1.3015641
            ],
            [
              103.7728429,
              1.3015158
            ],
            [
              103.7728771,
              1.3013723
            ],
            [
              103.7730112,
              1.3013757
            ],
            [
              103.7731306,
              1.301727
            ],
            [
              103.7731915,
              1.3017061
            ],
            [
              103.7731809,
              1.3016752
            ],
            [
              103.7731476,
              1.301578
            ],
            [
              103.7730313,
              1.3012389
            ],
            [
              103.7728792,
              1.3012348
            ],
            [
              103.7727001,
              1.3012271
            ],
            [
              103.7722451,
              1.3013921
            ],
            [
              103.7721421,
              1.3014187
            ],
            [
              103.7720536,
              1.3014052
            ],
            [
              103.7719423,
              1.3014226
            ],
            [
              103.7718925,
              1.3014365
            ],
            [
              103.7717942,
              1.3014722
            ],
            [
              103.771664,
              1.3015407
            ],
            [
              103.7715762,
              1.3016304
            ],
            [
              103.7714716,
              1.301666
            ],
            [
              103.7715138,
              1.3018021
            ],
            [
              103.7714045,
              1.3021218
            ],
            [
              103.7713938,
              1.3021835
            ],
            [
              103.7714267,
              1.3022452
            ]
          ]
        ]
      }
    },
    {
      "type": "Feature",
      "id": "s17",
      "properties": {
        "entity_type": "building",
        "name": "S17",
        "subtitle": "Science building",
        "source_id": "osm-api-nus-kent-ridge-map",
        "source_status": "verified",
        "source_label": "OSM way 142074912",
        "osm_type": "way",
        "osm_id": "142074912",
        "building_levels": "8",
        "height_m": 32,
        "height_source_status": "estimated-from-levels",
        "detail": "OSM-sourced building point derived from way geometry. Not an official NUS floor plan.",
        "date_checked": "2026-09-18"
      },
      "geometry": {
        "type": "Polygon",
        "coordinates": [
          [
            [
              103.780275,
              1.2976981
            ],
            [
              103.7807528,
              1.297918
            ],
            [
              103.7807969,
              1.2978222
            ],
            [
              103.7808294,
              1.2977515
            ],
            [
              103.7807367,
              1.2977088
            ],
            [
              103.7803913,
              1.2975499
            ],
            [
              103.78035,
              1.2975309
            ],
            [
              103.7803299,
              1.2975745
            ],
            [
              103.7802995,
              1.2975605
            ],
            [
              103.7802662,
              1.2976327
            ],
            [
              103.7802983,
              1.2976475
            ],
            [
              103.780275,
              1.2976981
            ]
          ]
        ]
      }
    }
  ]
}
